{
  "name": "SATGUS",
  "line1": "1 62713U 25009DJ  25333.17190139  .00009599  00000+0  81862-3 0  9991",
  "line2": "2 62713  97.7231  51.4407 0003731  90.2958 269.8692 14.97929205 47582",
  "fetched_at": "2025-11-30T00:21:19.773071+00:00"
}